{
    "links": {
        "self": "http://www.neowsapp.com/rest/v1/neo/3265791?api_key=iIulBulltgU6a56xZRHN4H3l9WmuAYTsLGpBGhQ2"
    },
    "id": "3265791",
    "neo_reference_id": "3265791",
    "name": "(2005 AO19)",
    "designation": "2005 AO19",
    "nasa_jpl_url": "http://ssd.jpl.nasa.gov/sbdb.cgi?sstr=3265791",
    "absolute_magnitude_h": 24.2,
    "estimated_diameter": {
        "kilometers": {
            "estimated_diameter_min": 0.0384197891,
            "estimated_diameter_max": 0.0859092601
        },
        "meters": {
            "estimated_diameter_min": 38.4197891064,
            "estimated_diameter_max": 85.9092601232
        },
        "miles": {
            "estimated_diameter_min": 0.0238729428,
            "estimated_diameter_max": 0.0533815229
        },
        "feet": {
            "estimated_diameter_min": 126.0491808919,
            "estimated_diameter_max": 281.8545369825
        }
    },
    "is_potentially_hazardous_asteroid": false,
    "close_approach_data": [
        {
            "close_approach_date": "2005-01-07",
            "close_approach_date_full": "2005-Jan-07 14:58",
            "epoch_date_close_approach": 1105109880000,
            "relative_velocity": {
                "kilometers_per_second": "3.0642960667",
                "kilometers_per_hour": "11031.4658399432",
                "miles_per_hour": "6854.5238714914"
            },
            "miss_distance": {
                "astronomical": "0.1267484678",
                "lunar": "49.3051539742",
                "kilometers": "18961300.808643586",
                "miles": "11782005.9836140468"
            },
            "orbiting_body": "Earth"
        }
    ],
    "orbital_data": {
        "orbit_id": "8",
        "orbit_determination_date": "2017-04-06 09:11:36",
        "first_observation_date": "2005-01-13",
        "last_observation_date": "2005-01-16",
        "data_arc_in_days": 3,
        "observations_used": 27,
        "orbit_uncertainty": "9",
        "minimum_orbit_intersection": ".12397",
        "jupiter_tisserand_invariant": "4.163",
        "epoch_osculation": "2453384.5",
        "eccentricity": ".3412987112531148",
        "semi_major_axis": "1.680828523846938",
        "inclination": "3.185515582492222",
        "ascending_node_longitude": "113.5675535820326",
        "orbital_period": "795.9458837116292",
        "perihelion_distance": "1.107163914820503",
        "perihelion_argument": "352.5613423106399",
        "aphelion_distance": "2.254493132873374",
        "perihelion_time": "2453375.455837638015",
        "mean_anomaly": "4.090602787128942",
        "mean_motion": ".4522920557378343",
        "equinox": "J2000",
        "orbit_class": {
            "orbit_class_type": "AMO",
            "orbit_class_description": "Near-Earth asteroid orbits similar to that of 1221 Amor",
            "orbit_class_range": "1.017 AU < q (perihelion) < 1.3 AU"
        }
    },
    "is_sentry_object": false
}